{"fetched_at":"2026-03-29T02:12:04Z","count":15717,"tles":[{"name":"STARLINK-5099","line1":"1 54009U 22125AX  26087.53833054  .00003205  00000+0  21936-3 0  9997","line2":"2 54009  53.2157 129.1104 0001817  61.0724 299.0451 15.08838794192317","category":"Starlink"}]}